COMMENT,ORIGINATOR,NORAD_CAT_ID,OBJECT_NAME,OBJECT_TYPE,CLASSIFICATION_TYPE,INTLDES,EPOCH,EPOCH_MICROSECONDS,MEAN_MOTION,ECCENTRICITY,INCLINATION,RA_OF_ASC_NODE,ARG_OF_PERICENTER,MEAN_ANOMALY,EPHEMERIS_TYPE,ELEMENT_SET_NO,REV_AT_EPOCH,BSTAR,MEAN_MOTION_DOT,MEAN_MOTION_DDOT,FILE,TLE_LINE0,TLE_LINE1,TLE_LINE2,OBJECT_ID,OBJECT_NUMBER,SEMIMAJOR_AXIS,PERIOD,APOGEE,PERIGEE,DECAYED
"GENERATED VIA SPACETRACK.ORG API","18 SPCS","55087","SPACEBEE-167","PAYLOAD","U","23001CG","2023-12-13 03:19:09","593472","15.27718676","0.0013423","97.4533","46.1256","95.9301","264.3469","0","999","5233","0.00077156","0.00020912","0","4135406","0 SPACEBEE-167","1 55087U 23001CG  23347.13830548  .00020912  00000-0  77156-3 0  9995","2 55087  97.4533  46.1256 0013423  95.9301 264.3469 15.27718676 52339","2023-001CG","55087","6860.771","94.258","491.845","473.427","0"
"GENERATED VIA SPACETRACK.ORG API","18 SPCS","55087","SPACEBEE-167","PAYLOAD","U","23001CG","2023-12-13 03:19:09","593472","15.27718676","0.0013423","97.4533","46.1256","95.9301","264.3469","0","999","5233","0.00077156","0.00020912","0","4135433","0 SPACEBEE-167","1 55087U 23001CG  23347.13830548  .00020912  00000-0  77156-3 0  9995","2 55087  97.4533  46.1256 0013423  95.9301 264.3469 15.27718676 52339","2023-001CG","55087","6860.771","94.258","491.845","473.427","0"
"GENERATED VIA SPACETRACK.ORG API","18 SPCS","55087","SPACEBEE-167","PAYLOAD","U","23001CG","2023-12-13 17:28:01","538112","15.27736486","0.0013414","97.453","46.7147","94.036","266.2412","0","999","5242","0.00068247","0.00018493","0","4135688","0 SPACEBEE-167","1 55087U 23001CG  23347.72779558  .00018493  00000-0  68247-3 0  9995","2 55087  97.4530  46.7147 0013414  94.0360 266.2412 15.27736486 52424","2023-001CG","55087","6860.718","94.257","491.786","473.380","0"
"GENERATED VIA SPACETRACK.ORG API","18 SPCS","55087","SPACEBEE-167","PAYLOAD","U","23001CG","2023-12-14 02:53:55","645152","15.27754563","0.0013413","97.4529","47.1074","92.9788","267.2986","0","999","5248","0.00073326","0.00019889","0","4136178","0 SPACEBEE-167","1 55087U 23001CG  23348.12078293  .00019889  00000-0  73326-3 0  9992","2 55087  97.4529  47.1074 0013413  92.9788 267.2986 15.27754563 52485","2023-001CG","55087","6860.663","94.256","491.731","473.326","0"
"GENERATED VIA SPACETRACK.ORG API","18 SPCS","55087","SPACEBEE-167","PAYLOAD","U","23001CG","2023-12-14 15:28:27","120576","15.27778898","0.0013416","97.4526","47.6311","91.2047","269.073","0","999","5256","0.00073213","0.00019873","0","4136494","0 SPACEBEE-167","1 55087U 23001CG  23348.64475834  .00019873  00000-0  73213-3 0  9999","2 55087  97.4526  47.6311 0013416  91.2047 269.0730 15.27778898 52567","2023-001CG","55087","6860.591","94.254","491.660","473.251","0"
"GENERATED VIA SPACETRACK.ORG API","18 SPCS","55087","SPACEBEE-167","PAYLOAD","U","23001CG","2023-12-14 15:28:27","120576","15.27778898","0.0013416","97.4526","47.6311","91.2047","269.073","0","999","5256","0.00073213","0.00019873","0","4136513","0 SPACEBEE-167","1 55087U 23001CG  23348.64475834  .00019873  00000-0  73213-3 0  9999","2 55087  97.4526  47.6311 0013416  91.2047 269.0730 15.27778898 52567","2023-001CG","55087","6860.591","94.254","491.660","473.251","0"
"GENERATED VIA SPACETRACK.ORG API","18 SPCS","55087","SPACEBEE-167","PAYLOAD","U","23001CG","2023-12-15 02:28:39","70272","15.27798587","0.0013429","97.4525","48.0893","89.7168","270.561","0","999","5263","0.00066143","0.00017953","0","4137031","0 SPACEBEE-167","1 55087U 23001CG  23349.10322998  .00017953  00000-0  66143-3 0  9994","2 55087  97.4525  48.0893 0013429  89.7168 270.5610 15.27798587 52635","2023-001CG","55087","6860.532","94.253","491.610","473.184","0"
"GENERATED VIA SPACETRACK.ORG API","18 SPCS","55087","SPACEBEE-167","PAYLOAD","U","23001CG","2023-12-15 16:37:27","838848","15.27827356","0.0013432","97.4523","48.6784","87.8253","272.4524","0","999","5272","0.00066695","0.0001812","0","4137247","0 SPACEBEE-167","1 55087U 23001CG  23349.69268332  .00018120  00000-0  66695-3 0  9998","2 55087  97.4523  48.6784 0013432  87.8253 272.4524 15.27827356 52728","2023-001CG","55087","6860.446","94.251","491.525","473.096","0"
"GENERATED VIA SPACETRACK.ORG API","18 SPCS","55087","SPACEBEE-167","PAYLOAD","U","23001CG","2023-12-15 16:37:27","838848","15.27827356","0.0013432","97.4523","48.6784","87.8253","272.4524","0","999","5272","0.00066695","0.0001812","0","4137270","0 SPACEBEE-167","1 55087U 23001CG  23349.69268332  .00018120  00000-0  66695-3 0  9998","2 55087  97.4523  48.6784 0013432  87.8253 272.4524 15.27827356 52728","2023-001CG","55087","6860.446","94.251","491.525","473.096","0"
"GENERATED VIA SPACETRACK.ORG API","18 SPCS","55087","SPACEBEE-167","PAYLOAD","U","23001CG","2023-12-16 03:37:38","420832","15.27851815","0.0013349","97.4522","49.1363","86.321","273.9555","0","999","5279","0.00071901","0.00019558","0","4137813","0 SPACEBEE-167","1 55087U 23001CG  23350.15113913  .00019558  00000-0  71901-3 0  9997","2 55087  97.4522  49.1363 0013349  86.3210 273.9555 15.27851815 52794","2023-001CG","55087","6860.372","94.250","491.395","473.079","0"
"GENERATED VIA SPACETRACK.ORG API","18 SPCS","55087","SPACEBEE-167","PAYLOAD","U","23001CG","2023-12-16 03:37:38","420832","15.27851815","0.0013349","97.4522","49.1363","86.321","273.9555","0","999","5279","0.00071901","0.00019558","0","4137834","0 SPACEBEE-167","1 55087U 23001CG  23350.15113913  .00019558  00000-0  71901-3 0  9997","2 55087  97.4522  49.1363 0013349  86.3210 273.9555 15.27851815 52794","2023-001CG","55087","6860.372","94.250","491.395","473.079","0"
"GENERATED VIA SPACETRACK.ORG API","18 SPCS","55087","SPACEBEE-167","PAYLOAD","U","23001CG","2023-12-17 03:12:16","363872","15.27900969","0.0013314","97.452","50.1181","83.0939","277.1814","0","999","5294","0.00078719","0.00021457","0","4138347","0 SPACEBEE-167","1 55087U 23001CG  23351.13352273  .00021457  00000-0  78719-3 0  9995","2 55087  97.4520  50.1181 0013314  83.0939 277.1814 15.27900969 52942","2023-001CG","55087","6860.225","94.247","491.224","472.956","0"
"GENERATED VIA SPACETRACK.ORG API","18 SPCS","55087","SPACEBEE-167","PAYLOAD","U","23001CG","2023-12-17 09:29:30","65568","15.27914495","0.001331","97.4519","50.3798","82.3343","277.9407","0","999","5298","0.00089937","0.00024545","0","4138654","0 SPACEBEE-167","1 55087U 23001CG  23351.39548687  .00024545  00000-0  89937-3 0  9994","2 55087  97.4519  50.3798 0013310  82.3343 277.9407 15.27914495 52982","2023-001CG","55087","6860.185","94.246","491.181","472.919","0"
"GENERATED VIA SPACETRACK.ORG API","18 SPCS","55087","SPACEBEE-167","PAYLOAD","U","23001CG","2023-12-17 15:46:43","517568","15.27933069","0.0013323","97.4519","50.6417","81.6764","278.5985","0","999","5302","0.0010694","0.00029234","0","4138912","0 SPACEBEE-167","1 55087U 23001CG  23351.65744812  .00029234  00000-0  10694-2 0  9994","2 55087  97.4519  50.6417 0013323  81.6764 278.5985 15.27933069 53028","2023-001CG","55087","6860.129","94.245","491.134","472.854","0"
"GENERATED VIA SPACETRACK.ORG API","18 SPCS","55087","SPACEBEE-167","PAYLOAD","U","23001CG","2023-12-18 02:46:51","326112","15.27968","0.0013339","97.452","51.1002","79.9025","280.3718","0","999","5309","0.0012376","0.00033901","0","4139153","0 SPACEBEE-167","1 55087U 23001CG  23352.11587183  .00033901  00000-0  12376-2 0  9997","2 55087  97.4520  51.1002 0013339  79.9025 280.3718 15.27968000 53098","2023-001CG","55087","6860.025","94.243","491.040","472.739","0"
"GENERATED VIA SPACETRACK.ORG API","18 SPCS","55087","SPACEBEE-167","PAYLOAD","U","23001CG","2023-12-18 02:46:51","326112","15.27968","0.0013339","97.452","51.1002","79.9025","280.3718","0","999","5309","0.0012376","0.00033901","0","4139416","0 SPACEBEE-167","1 55087U 23001CG  23352.11587183  .00033901  00000-0  12376-2 0  9997","2 55087  97.4520  51.1002 0013339  79.9025 280.3718 15.27968000 53098","2023-001CG","55087","6860.025","94.243","491.040","472.739","0"
"GENERATED VIA SPACETRACK.ORG API","18 SPCS","55087","SPACEBEE-167","PAYLOAD","U","23001CG","2023-12-18 21:38:28","557888","15.28018981","0.001335","97.452","51.8859","77.5557","282.7175","0","999","5321","0.0011144","0.00030553","0","4139685","0 SPACEBEE-167","1 55087U 23001CG  23352.90171942  .00030553  00000-0  11144-2 0  9998","2 55087  97.4520  51.8859 0013350  77.5557 282.7175 15.28018981 53214","2023-001CG","55087","6859.872","94.240","490.895","472.579","0"
"GENERATED VIA SPACETRACK.ORG API","18 SPCS","55087","SPACEBEE-167","PAYLOAD","U","23001CG","2023-12-19 03:55:40","454688","15.28036384","0.0013339","97.452","52.1478","76.6375","283.6351","0","999","5325","0.0010685","0.00029302","0","4139940","0 SPACEBEE-167","1 55087U 23001CG  23353.16366267  .00029302  00000-0  10685-2 0  9992","2 55087  97.4520  52.1478 0013339  76.6375 283.6351 15.28036384 53257","2023-001CG","55087","6859.820","94.239","490.835","472.535","0"
"GENERATED VIA SPACETRACK.ORG API","18 SPCS","55087","SPACEBEE-167","PAYLOAD","U","23001CG","2023-12-19 03:55:40","454688","15.28036384","0.0013339","97.452","52.1478","76.6375","283.6351","0","999","5325","0.0010685","0.00029302","0","4140211","0 SPACEBEE-167","1 55087U 23001CG  23353.16366267  .00029302  00000-0  10685-2 0  9992","2 55087  97.4520  52.1478 0013339  76.6375 283.6351 15.28036384 53257","2023-001CG","55087","6859.820","94.239","490.835","472.535","0"
"GENERATED VIA SPACETRACK.ORG API","18 SPCS","55087","SPACEBEE-167","PAYLOAD","U","23001CG","2023-12-20 03:30:07","834464","15.2809682","0.0013268","97.4518","53.1297","73.3158","286.9537","0","999","5340","0.00097677","0.0002682","0","4141011","0 SPACEBEE-167","1 55087U 23001CG  23354.14592401  .00026820  00000-0  97677-3 0  9991","2 55087  97.4518  53.1297 0013268  73.3158 286.9537 15.28096820 53408","2023-001CG","55087","6859.639","94.235","490.605","472.403","0"
